1 00000U 00000000 97 6.96319444 0.0000000 0000000000 00000000 0 00000
2 00000 054.2004  27.4076 0000000  88.4856 360.0000 85.46634501000000